[{"OBJECT_NAME":"TDRS 3","OBJECT_ID":"1988-091B","EPOCH":"2026-03-04T21:21:26.998848","MEAN_MOTION":1.00260111,"ECCENTRICITY":0.004424,"INCLINATION":12.6802,"RA_OF_ASC_NODE":341.6894,"ARG_OF_PERICENTER":353.1115,"MEAN_ANOMALY":98.6562,"EPHEMERIS_TYPE":0,"CLASSIFICATION_TYPE":"U","NORAD_CAT_ID":19548,"ELEMENT_SET_NO":999,"REV_AT_EPOCH":12434,"BSTAR":0,"MEAN_MOTION_DOT":-3.06e-6,"MEAN_MOTION_DDOT":0},{"OBJECT_NAME":"HST","OBJECT_ID":"1990-037B","EPOCH":"2026-03-05T02:44:22.469280","MEAN_MOTION":15.29398003,"ECCENTRICITY":0.0001766,"INCLINATION":28.4704,"RA_OF_ASC_NODE":71.2101,"ARG_OF_PERICENTER":80.6022,"MEAN_ANOMALY":279.4773,"EPHEMERIS_TYPE":0,"CLASSIFICATION_TYPE":"U","NORAD_CAT_ID":20580,"ELEMENT_SET_NO":999,"REV_AT_EPOCH":77261,"BSTAR":0.00033044,"MEAN_MOTION_DOT":9.931e-5,"MEAN_MOTION_DDOT":0},{"OBJECT_NAME":"TDRS 5","OBJECT_ID":"1991-054B","EPOCH":"2026-03-05T16:45:56.913696","MEAN_MOTION":1.00267149,"ECCENTRICITY":0.0010631,"INCLINATION":14.0839,"RA_OF_ASC_NODE":354.5436,"ARG_OF_PERICENTER":277.9523,"MEAN_ANOMALY":334.8614,"EPHEMERIS_TYPE":0,"CLASSIFICATION_TYPE":"U","NORAD_CAT_ID":21639,"ELEMENT_SET_NO":999,"REV_AT_EPOCH":12667,"BSTAR":0,"MEAN_MOTION_DOT":8.0e-7,"MEAN_MOTION_DDOT":0},{"OBJECT_NAME":"TDRS 6","OBJECT_ID":"1993-003B","EPOCH":"2026-03-05T15:30:33.941088","MEAN_MOTION":1.00278291,"ECCENTRICITY":0.0005517,"INCLINATION":14.1808,"RA_OF_ASC_NODE":357.8257,"ARG_OF_PERICENTER":200.4878,"MEAN_ANOMALY":151.7592,"EPHEMERIS_TYPE":0,"CLASSIFICATION_TYPE":"U","NORAD_CAT_ID":22314,"ELEMENT_SET_NO":999,"REV_AT_EPOCH":12136,"BSTAR":0,"MEAN_MOTION_DOT":-2.99e-6,"MEAN_MOTION_DDOT":0},{"OBJECT_NAME":"TDRS 7","OBJECT_ID":"1995-035B","EPOCH":"2026-03-05T16:49:48.612576","MEAN_MOTION":1.00276158,"ECCENTRICITY":0.0008223,"INCLINATION":13.42,"RA_OF_ASC_NODE":348.8997,"ARG_OF_PERICENTER":47.6107,"MEAN_ANOMALY":108.4062,"EPHEMERIS_TYPE":0,"CLASSIFICATION_TYPE":"U","NORAD_CAT_ID":23613,"ELEMENT_SET_NO":999,"REV_AT_EPOCH":11221,"BSTAR":0,"MEAN_MOTION_DOT":-2.43e-6,"MEAN_MOTION_DDOT":0},{"OBJECT_NAME":"ISS (ZARYA)","OBJECT_ID":"1998-067A","EPOCH":"2026-03-05T16:56:13.265376","MEAN_MOTION":15.48463204,"ECCENTRICITY":0.0008143,"INCLINATION":51.6315,"RA_OF_ASC_NODE":92.053,"ARG_OF_PERICENTER":160.3826,"MEAN_ANOMALY":199.7477,"EPHEMERIS_TYPE":0,"CLASSIFICATION_TYPE":"U","NORAD_CAT_ID":25544,"ELEMENT_SET_NO":999,"REV_AT_EPOCH":55571,"BSTAR":0.00017141,"MEAN_MOTION_DOT":8.837e-5,"MEAN_MOTION_DDOT":0},{"OBJECT_NAME":"TERRA","OBJECT_ID":"1999-068A","EPOCH":"2026-03-05T17:58:57.742752","MEAN_MOTION":14.61010039,"ECCENTRICITY":0.0002458,"INCLINATION":97.9601,"RA_OF_ASC_NODE":118.3344,"ARG_OF_PERICENTER":160.917,"MEAN_ANOMALY":293.1291,"EPHEMERIS_TYPE":0,"CLASSIFICATION_TYPE":"U","NORAD_CAT_ID":25994,"ELEMENT_SET_NO":999,"REV_AT_EPOCH":39450,"BSTAR":0.00013779,"MEAN_MOTION_DOT":6.31e-6,"MEAN_MOTION_DDOT":0},{"OBJECT_NAME":"TDRS 8","OBJECT_ID":"2000-034A","EPOCH":"2026-03-05T09:16:00.005952","MEAN_MOTION":1.00276319,"ECCENTRICITY":0.0006144,"INCLINATION":12.5205,"RA_OF_ASC_NODE":32.1873,"ARG_OF_PERICENTER":308.5509,"MEAN_ANOMALY":46.157,"EPHEMERIS_TYPE":0,"CLASSIFICATION_TYPE":"U","NORAD_CAT_ID":26388,"ELEMENT_SET_NO":999,"REV_AT_EPOCH":9413,"BSTAR":0,"MEAN_MOTION_DOT":-2.0e-6,"MEAN_MOTION_DDOT":0},{"OBJECT_NAME":"TIMED","OBJECT_ID":"2001-055B","EPOCH":"2026-03-05T18:21:15.435072","MEAN_MOTION":14.95008295,"ECCENTRICITY":0.0002998,"INCLINATION":74.066,"RA_OF_ASC_NODE":83.2203,"ARG_OF_PERICENTER":280.4869,"MEAN_ANOMALY":79.5978,"EPHEMERIS_TYPE":0,"CLASSIFICATION_TYPE":"U","NORAD_CAT_ID":26998,"ELEMENT_SET_NO":999,"REV_AT_EPOCH":31536,"BSTAR":0.00018321,"MEAN_MOTION_DOT":1.965e-5,"MEAN_MOTION_DDOT":0},{"OBJECT_NAME":"AQUA","OBJECT_ID":"2002-022A","EPOCH":"2026-03-05T19:02:21.158016","MEAN_MOTION":14.61966241,"ECCENTRICITY":6.06e-5,"INCLINATION":98.4169,"RA_OF_ASC_NODE":32.0874,"ARG_OF_PERICENTER":63.2661,"MEAN_ANOMALY":49.875,"EPHEMERIS_TYPE":0,"CLASSIFICATION_TYPE":"U","NORAD_CAT_ID":27424,"ELEMENT_SET_NO":999,"REV_AT_EPOCH":26816,"BSTAR":0.00032073,"MEAN_MOTION_DOT":1.558e-5,"MEAN_MOTION_DDOT":0},{"OBJECT_NAME":"SORCE","OBJECT_ID":"2003-004A","EPOCH":"2026-03-05T15:30:32.163840","MEAN_MOTION":15.03061843,"ECCENTRICITY":0.001636,"INCLINATION":39.9903,"RA_OF_ASC_NODE":132.1478,"ARG_OF_PERICENTER":24.3738,"MEAN_ANOMALY":335.7827,"EPHEMERIS_TYPE":0,"CLASSIFICATION_TYPE":"U","NORAD_CAT_ID":27651,"ELEMENT_SET_NO":999,"REV_AT_EPOCH":25631,"BSTAR":0.00035955,"MEAN_MOTION_DOT":4.796e-5,"MEAN_MOTION_DDOT":0},{"OBJECT_NAME":"AURA","OBJECT_ID":"2004-026A","EPOCH":"2026-03-05T19:02:51.454176","MEAN_MOTION":14.61138568,"ECCENTRICITY":0.0001027,"INCLINATION":98.3306,"RA_OF_ASC_NODE":20.4714,"ARG_OF_PERICENTER":79.9546,"MEAN_ANOMALY":280.177,"EPHEMERIS_TYPE":0,"CLASSIFICATION_TYPE":"U","NORAD_CAT_ID":28376,"ELEMENT_SET_NO":999,"REV_AT_EPOCH":15111,"BSTAR":0.00032041,"MEAN_MOTION_DOT":1.528e-5,"MEAN_MOTION_DDOT":0},{"OBJECT_NAME":"SWIFT","OBJECT_ID":"2004-047A","EPOCH":"2026-03-05T18:29:09.021984","MEAN_MOTION":15.58889786,"ECCENTRICITY":0.0003265,"INCLINATION":20.5529,"RA_OF_ASC_NODE":257.02,"ARG_OF_PERICENTER":342.8585,"MEAN_ANOMALY":17.1748,"EPHEMERIS_TYPE":0,"CLASSIFICATION_TYPE":"U","NORAD_CAT_ID":28485,"ELEMENT_SET_NO":999,"REV_AT_EPOCH":17065,"BSTAR":0.00056644,"MEAN_MOTION_DOT":0.00046852,"MEAN_MOTION_DDOT":0},{"OBJECT_NAME":"THEMIS A","OBJECT_ID":"2007-004A","EPOCH":"2026-03-05T02:54:22.306464","MEAN_MOTION":0.87846889,"ECCENTRICITY":0.8405201,"INCLINATION":6.7471,"RA_OF_ASC_NODE":120.191,"ARG_OF_PERICENTER":177.4836,"MEAN_ANOMALY":195.7689,"EPHEMERIS_TYPE":0,"CLASSIFICATION_TYPE":"U","NORAD_CAT_ID":30580,"ELEMENT_SET_NO":999,"REV_AT_EPOCH":4036,"BSTAR":-0.0047506,"MEAN_MOTION_DOT":-1.98e-6,"MEAN_MOTION_DDOT":0},{"OBJECT_NAME":"THEMIS D","OBJECT_ID":"2007-004D","EPOCH":"2026-03-04T18:14:47.884416","MEAN_MOTION":0.87836012,"ECCENTRICITY":0.83584306,"INCLINATION":6.6064,"RA_OF_ASC_NODE":84.7113,"ARG_OF_PERICENTER":215.7397,"MEAN_ANOMALY":68.9811,"EPHEMERIS_TYPE":0,"CLASSIFICATION_TYPE":"U","NORAD_CAT_ID":30797,"ELEMENT_SET_NO":999,"REV_AT_EPOCH":4016,"BSTAR":0,"MEAN_MOTION_DOT":-2.46e-6,"MEAN_MOTION_DDOT":0},{"OBJECT_NAME":"THEMIS E","OBJECT_ID":"2007-004E","EPOCH":"2026-03-05T17:41:36.281472","MEAN_MOTION":0.87837806,"ECCENTRICITY":0.8361891,"INCLINATION":4.1415,"RA_OF_ASC_NODE":99.8282,"ARG_OF_PERICENTER":201.6773,"MEAN_ANOMALY":32.2816,"EPHEMERIS_TYPE":0,"CLASSIFICATION_TYPE":"U","NORAD_CAT_ID":30798,"ELEMENT_SET_NO":999,"REV_AT_EPOCH":6500,"BSTAR":0,"MEAN_MOTION_DOT":-2.7e-6,"MEAN_MOTION_DDOT":0},{"OBJECT_NAME":"FGRST (GLAST)","OBJECT_ID":"2008-029A","EPOCH":"2026-03-05T18:03:54.346176","MEAN_MOTION":15.23294899,"ECCENTRICITY":0.0008277,"INCLINATION":25.5812,"RA_OF_ASC_NODE":202.3523,"ARG_OF_PERICENTER":181.7471,"MEAN_ANOMALY":178.3038,"EPHEMERIS_TYPE":0,"CLASSIFICATION_TYPE":"U","NORAD_CAT_ID":33053,"ELEMENT_SET_NO":999,"REV_AT_EPOCH":98004,"BSTAR":0.00020635,"MEAN_MOTION_DOT":5.378e-5,"MEAN_MOTION_DDOT":0}]
