TDRS 3                  
1 19548U 88091B   26063.88989582 -.00000306  00000+0  00000+0 0  9995
2 19548  12.6802 341.6894 0044240 353.1115  98.6562  1.00260111124348
HST                     
1 20580U 90037B   26064.11414895  .00009931  00000+0  33044-3 0  9993
2 20580  28.4704  71.2101 0001766  80.6022 279.4773 15.29398003772614
TDRS 5                  
1 21639U 91054B   26064.69857539  .00000080  00000+0  00000+0 0  9996
2 21639  14.0839 354.5436 0010631 277.9523 334.8614  1.00267149126675
TDRS 6                  
1 22314U 93003B   26064.64622617 -.00000299  00000+0  00000+0 0  9998
2 22314  14.1808 357.8257 0005517 200.4878 151.7592  1.00278291121363
TDRS 7                  
1 23613U 95035B   26064.70125709 -.00000243  00000+0  00000+0 0  9994
2 23613  13.4200 348.8997 0008223  47.6107 108.4062  1.00276158112213
ISS (ZARYA)             
1 25544U 98067A   26064.70570909  .00008837  00000+0  17141-3 0  9997
2 25544  51.6315  92.0530 0008143 160.3826 199.7477 15.48463204555718
TERRA                   
1 25994U 99068A   26064.74927943  .00000631  00000+0  13779-3 0  9993
2 25994  97.9601 118.3344 0002458 160.9170 293.1291 14.61010039394503
TDRS 8                  
1 26388U 00034A   26064.38611118 -.00000200  00000+0  00000+0 0  9992
2 26388  12.5205  32.1873 0006144 308.5509  46.1570  1.00276319 94132
TIMED                   
1 26998U 01055B   26064.76476198  .00001965  00000+0  18321-3 0  9999
2 26998  74.0660  83.2203 0002998 280.4869  79.5978 14.95008295315368
AQUA                    
1 27424U 02022A   26064.79330044  .00001558  00000+0  32073-3 0  9999
2 27424  98.4169  32.0874 0000606  63.2661  49.8750 14.61966241268164
SORCE                   
1 27651U 03004A   26064.64620560  .00004796  00000+0  35955-3 0  9990
2 27651  39.9903 132.1478 0016360  24.3738 335.7827 15.03061843256318
AURA                    
1 28376U 04026A   26064.79365109  .00001528  00000+0  32041-3 0  9994
2 28376  98.3306  20.4714 0001027  79.9546 280.1770 14.61138568151112
SWIFT                   
1 28485U 04047A   26064.77024331  .00046852  00000+0  56644-3 0  9999
2 28485  20.5529 257.0200 0003265 342.8585  17.1748 15.58889786170651
THEMIS A                
1 30580U 07004A   26064.12109151 -.00000198  00000+0 -47506-2 0  9998
2 30580   6.7471 120.1910 8405201 177.4836 195.7689  0.87846889 40369
THEMIS D                
1 30797U 07004D   26063.76027644 -.00000246  00000+0  00000+0 0  9991
2 30797   6.6064  84.7113 8358430 215.7397  68.9811  0.87836012 40168
THEMIS E                
1 30798U 07004E   26064.73722548 -.00000270  00000+0  00000+0 0  9992
2 30798   4.1415  99.8282 8361891 201.6773  32.2816  0.87837806 65004
FGRST (GLAST)           
1 33053U 08029A   26064.75271234  .00005378  00000+0  20635-3 0  9993
2 33053  25.5812 202.3523 0008277 181.7471 178.3038 15.23294899980042
